STARLINK-5221           
1 54091U 22136AS  25142.19254680 -.00000384  00000+0 -60287-5 0  9996
2 54091  53.2157 202.2968 0001187  78.9983 281.1143 15.08831491143451
STARLINK-5190           
1 54092U 22136AT  25142.18134903  .00016538  00000+0  36846-3 0  9999
2 54092  53.1868 133.4533 0004465 108.3884 251.7609 15.43756388144421
STARLINK-5213           
1 54093U 22136AU  25141.47864170 -.00000116  00000+0  10816-4 0  9993
2 54093  53.2166 205.6565 0001238  94.3337 265.7796 15.08835672142877
STARLINK-5219           
1 54094U 22136AV  25141.48601059 -.00000057  00000+0  14506-4 0  9994
2 54094  53.2161 205.7025 0001229  93.1966 266.9166 15.08837097142877
STARLINK-5193           
1 54095U 22136AW  25141.86871261 -.00000381  00000+0 -58367-5 0  9996
2 54095  53.2165 203.8244 0001138  90.1693 269.9430 15.08836447143402
STARLINK-5188           
1 54096U 22136AX  25141.48232634  .00000539  00000+0  51920-4 0  9990
2 54096  53.2172 205.6802 0001100 101.6407 258.4709 15.08840371142874
STARLINK-5197           
1 54097U 22136AY  25141.49017767  .00000526  00000+0  51130-4 0  9999
2 54097  53.2158 180.7807 0001086  93.7576 266.3540 15.08841814143222
STARLINK-5217           
1 54098U 22136AZ  25141.46863018  .00000189  00000+0  29958-4 0  9993
2 54098  53.2160 206.2841 0001176  89.7628 270.3499 15.08838941142865
STARLINK-5198           
1 54099U 22136BA  25141.46021807 -.00000051  00000+0  14895-4 0  9999
2 54099  53.2167 205.5416 0001325  87.1022 273.0122 15.08839144142879
STARLINK-5185           
1 54100U 22136BB  25142.13735929 -.00000080  00000+0  13052-4 0  9990
2 54100  53.2159 202.6586 0001132  93.5347 266.5775 15.08831879143448
STARLINK-5204           
1 54101U 22136BC  25141.40921744  .00000989  00000+0  80239-4 0  9990
2 54101  53.2159 190.9770 0000869  94.1916 265.9175 15.08831126143079
STARLINK-5179           
1 54102U 22136BD  25142.16683523  .00000135  00000+0  26601-4 0  9991
2 54102  53.2162 202.8339 0001211  85.8105 274.3026 15.08836168143448
STARLINK-5200           
1 54103U 22136BE  25141.54304756 -.00000227  00000+0  37929-5 0  9990
2 54103  53.2160 185.4009 0001173  85.9708 274.1418 15.08835125143168
STARLINK-5203           
1 54104U 22136BF  25141.45423942 -.00000362  00000+0 -46769-5 0  9993
2 54104  53.2154 170.5715 0001165  81.8976 278.2148 15.08835496143362
STARLINK-5290           
1 54157U 22141A   25141.60841583  .00000331  00000+0  38859-4 0  9993
2 54157  53.2167 245.2719 0001138  91.2894 268.8228 15.08845411141621
STARLINK-5297           
1 54158U 22141B   25141.55963760  .00000676  00000+0  60566-4 0  9992
2 54158  53.2164 245.6734 0001261  86.3395 273.7741 15.08847292141611
STARLINK-5294           
1 54159U 22141C   25141.55592825 -.00022138  00000+0 -13737-2 0  9998
2 54159  53.2172 245.6573 0001759  71.4334 288.6849 15.08929556141610
STARLINK-5233           
1 54160U 22141D   25141.53617318 -.00000090  00000+0  12414-4 0  9998
2 54160  53.2168 200.6159 0001218  90.5313 269.5819 15.08835068142246
STARLINK-5269           
1 54161U 22141E   25141.55692169 -.00000133  00000+0  97493-5 0  9997
2 54161  53.2187 245.6538 0001477  97.6136 262.5024 15.08838998141612
STARLINK-5273           
1 54162U 22141F   25142.01227067  .00000340  00000+0  39464-4 0  9993
2 54162  53.2173 243.5239 0001379  95.4187 264.6962 15.08846618141685
STARLINK-5161           
1 54163U 22141G   25141.95801054  .00000311  00000+0  37613-4 0  9992
2 54163  53.2155 233.9233 0001209  90.6635 269.4496 15.08841295141816
STARLINK-5278           
1 54164U 22141H   25141.56426308 -.00000990  00000+0 -44143-4 0  9996
2 54164  53.2172 235.7305 0001242  89.3599 270.7536 15.08835080141755
STARLINK-5279           
1 54165U 22141J   25141.61114239  .00000243  00000+0  33320-4 0  9994
2 54165  53.2165 245.2861 0001358  87.1550 272.9597 15.08847861141629
STARLINK-5280           
1 54166U 22141K   25141.95432700  .00000508  00000+0  50024-4 0  9992
2 54166  53.2170 233.8997 0001082  80.9244 279.1871 15.08841883141817
STARLINK-5243           
1 54167U 22141L   25141.59272452 -.00000459  00000+0 -10782-4 0  9993
2 54167  53.2170 245.1738 0001178  90.2122 269.9005 15.08837169141629
STARLINK-5245           
1 54168U 22141M   25142.21560589  .00000064  00000+0  22126-4 0  9990
2 54168  53.2175 232.6882 0001251  92.4920 267.6216 15.08833879141856
STARLINK-5282           
1 54169U 22141N   25141.96529532 -.00000022  00000+0  16692-4 0  9991
2 54169  53.2174 233.2700 0001219  86.3197 273.7935 15.08839832141822
STARLINK-5155           
1 54170U 22141P   25141.54951288 -.00000340  00000+0 -32828-5 0  9998
2 54170  53.2172 235.6387 0001213  87.3823 272.7308 15.08843373141750
STARLINK-5117           
1 54172U 22141R   25141.54215225 -.00000507  00000+0 -13763-4 0  9995
2 54172  53.2170 235.5912 0001427  94.1857 265.9298 15.08836097141750
STARLINK-5242           
1 54173U 22141S   25141.57153439 -.00000025  00000+0  16515-4 0  9999
2 54173  53.2169 235.0703 0001182  91.2261 268.8866 15.08847242141765
STARLINK-5248           
1 54174U 22141T   25141.51221441  .00000578  00000+0  54421-4 0  9993
2 54174  53.2160 180.4971 0001267  86.5476 273.5662 15.08840667142522
STARLINK-5256           
1 54175U 22141U   25141.94326948  .00001059  00000+0  84614-4 0  9991
2 54175  53.2177 233.8309 0001562  85.9926 274.1245 15.08829475141819
STARLINK-5154           
1 54176U 22141V   25141.53109398  .00001123  00000+0  88641-4 0  9991
2 54176  53.2162 235.5227 0001438  90.5114 269.6043 15.08843148141756
STARLINK-5186           
1 54177U 22141W   25141.53846742 -.00001017  00000+0 -45825-4 0  9994
2 54177  53.2167 235.5688 0001378  93.1778 266.9372 15.08835899141750
STARLINK-5164           
1 54178U 22141X   25141.58258691  .00000667  00000+0  59999-4 0  9995
2 54178  53.2167 235.1166 0001251  86.9236 273.1899 15.08844653141760
STARLINK-5122           
1 54179U 22141Y   25141.53478614  .00002553  00000+0  17845-3 0  9999
2 54179  53.2173 235.5464 0001286  87.0332 273.0807 15.08840901141759
STARLINK-5228           
1 54180U 22141Z   25142.24131029 -.00000497  00000+0 -13164-4 0  9994
2 54180  53.2173 232.1423 0001242  86.5272 273.5862 15.08841368142090
STARLINK-5227           
1 54181U 22141AA  25141.52372373  .00000260  00000+0  34419-4 0  9996
2 54181  53.2170 235.4796 0001273  84.5294 275.5843 15.08840665141755
STARLINK-5231           
1 54182U 22141AB  25141.50071759 -.00000681  00000+0 -24716-4 0  9997
2 54182  53.2167 205.4414 0001296  87.2786 272.8354 15.08829379142170
STARLINK-5239           
1 54183U 22141AC  25142.23763211  .00001565  00000+0  11635-3 0  9995
2 54183  53.2164 232.1188 0001197  86.9285 273.1844 15.08849269142092
STARLINK-5162           
1 54184U 22141AD  25141.97738239 -.00005501  00000+0 -32746-3 0  9990
2 54184  53.2171 234.0264 0001410  94.7767 265.3386 15.08873438142041
STARLINK-5235           
1 54185U 22141AE  25141.98371370  .00001534  00000+0  11444-3 0  9993
2 54185  53.2165 233.3771 0001131  89.0188 271.0933 15.08832129142059
STARLINK-5194           
1 54186U 22141AF  25141.49525139  .00000866  00000+0  72473-4 0  9991
2 54186  53.2169 226.0297 0001330  87.7763 272.3382 15.08844160141881
STARLINK-5240           
1 54187U 22141AG  25141.52740340  .00000174  00000+0  29020-4 0  9991
2 54187  53.2168 235.5094 0001294  80.9722 279.1417 15.08844922141756
STARLINK-5238           
1 54188U 22141AH  25142.22021516 -.00000815  00000+0 -33101-4 0  9996
2 54188  53.2169 222.7376 0001246  79.7856 280.3277 15.08836368142226
STARLINK-5281           
1 54190U 22141AK  25142.21652785 -.00000070  00000+0  13661-4 0  9997
2 54190  53.2167 222.7149 0001233  88.1142 271.9991 15.08837048142228
STARLINK-4619           
1 54191U 22141AL  25141.49894103  .00000251  00000+0  33846-4 0  9996
2 54191  53.2169 226.0519 0000678  78.8112 281.2956 15.08839260141888
STARLINK-5268           
1 54192U 22141AM  25141.91472089 -.00000914  00000+0 -39336-4 0  9997
2 54192  53.2172 223.6736 0001256  81.9829 278.1306 15.08836300142180
STARLINK-5263           
1 54193U 22141AN  25141.54676329 -.00000603  00000+0 -19816-4 0  9996
2 54193  53.2179 225.6435 0001076  90.0919 270.0197 15.08834456141893
STARLINK-5271           
1 54194U 22141AP  25142.20179121 -.00000133  00000+0  97101-5 0  9990
2 54194  53.2172 222.6229 0001233  94.0166 266.0967 15.08837656142221
STARLINK-5258           
1 54195U 22141AQ  25141.55044196  .00000104  00000+0  24630-4 0  9994
2 54195  53.2170 225.6652 0001147  87.8611 272.2513 15.08842447141894
STARLINK-5237           
1 54196U 22141AR  25141.92945988 -.00000004  00000+0  17822-4 0  9990
2 54196  53.2170 223.7673 0001137  91.4855 268.6268 15.08836638142181
STARLINK-5246           
1 54198U 22141AT  25141.52833766  .00000508  00000+0  49987-4 0  9993
2 54198  53.2186 225.5279 0001345  85.1775 274.9370 15.08837247141892
STARLINK-5244           
1 54199U 22141AU  25141.93314031 -.00000263  00000+0  15864-5 0  9995
2 54199  53.2162 223.7899 0001213  92.1409 267.9722 15.08838943142181
STARLINK-5250           
1 54200U 22141AV  25141.91840359 -.00000644  00000+0 -22355-4 0  9999
2 54200  53.2165 223.6948 0001161  74.4769 285.6351 15.08837768142184
STARLINK-5199           
1 54201U 22141AW  25141.54307149  .00002406  00000+0  16926-3 0  9996
2 54201  53.2166 225.6129 0001379  84.1275 275.9875 15.08828928142125
STARLINK-5205           
1 54202U 22141AX  25141.51359348 -.00000335  00000+0 -29378-5 0  9990
2 54202  53.2165 225.4326 0001311  88.1380 271.9763 15.08836451142121
STARLINK-5247           
1 54203U 22141AY  25141.52465060  .00000598  00000+0  55684-4 0  9998
2 54203  53.2171 225.5037 0001168  92.7879 267.3247 15.08837347141897
STARLINK-5241           
1 54204U 22141AZ  25141.50254112  .00001508  00000+0  11277-3 0  9992
2 54204  53.2172 225.3676 0000921  84.5870 275.5227 15.08847130141892
